CCSDS_OMM_VERS = 2.0
CREATION_DATE  = 
ORIGINATOR     = 

OBJECT_NAME    = STARLINK-35069
OBJECT_ID      = 2025-247D
CENTER_NAME    = EARTH
REF_FRAME      = TEME
TIME_SYSTEM    = UTC
MEAN_ELEMENT_THEORY = SGP/SGP4

EPOCH          = 2025-11-20T06:00:02.000160
MEAN_MOTION    = 15.49298215
ECCENTRICITY   = .00013893
INCLINATION    = 53.1597
RA_OF_ASC_NODE = 343.6783
ARG_OF_PERICENTER = 93.2185
MEAN_ANOMALY   = 245.7748

EPHEMERIS_TYPE = 0
CLASSIFICATION_TYPE = U
NORAD_CAT_ID   = 66268
ELEMENT_SET_NO = 999
REV_AT_EPOCH   = 422
BSTAR          = .18306091E-4
MEAN_MOTION_DOT = .569E-5
MEAN_MOTION_DDOT = 0

CCSDS_OMM_VERS = 2.0
CREATION_DATE  = 
ORIGINATOR     = 

OBJECT_NAME    = STARLINK-34910
OBJECT_ID      = 2025-247E
CENTER_NAME    = EARTH
REF_FRAME      = TEME
TIME_SYSTEM    = UTC
MEAN_ELEMENT_THEORY = SGP/SGP4

EPOCH          = 2025-11-20T06:00:02.000160
MEAN_MOTION    = 15.54686768
ECCENTRICITY   = .00013254
INCLINATION    = 53.1590
RA_OF_ASC_NODE = 342.5788
ARG_OF_PERICENTER = 74.4470
MEAN_ANOMALY   = 79.3673

EPHEMERIS_TYPE = 0
CLASSIFICATION_TYPE = U
NORAD_CAT_ID   = 66269
ELEMENT_SET_NO = 999
REV_AT_EPOCH   = 427
BSTAR          = -.34625066E-1
MEAN_MOTION_DOT = -.2080682E-1
MEAN_MOTION_DDOT = 0

CCSDS_OMM_VERS = 2.0
CREATION_DATE  = 
ORIGINATOR     = 

OBJECT_NAME    = STARLINK-35757
OBJECT_ID      = 2025-247F
CENTER_NAME    = EARTH
REF_FRAME      = TEME
TIME_SYSTEM    = UTC
MEAN_ELEMENT_THEORY = SGP/SGP4

EPOCH          = 2025-11-20T06:00:02.000160
MEAN_MOTION    = 15.49322478
ECCENTRICITY   = .00011885
INCLINATION    = 53.1597
RA_OF_ASC_NODE = 343.6751
ARG_OF_PERICENTER = 77.2449
MEAN_ANOMALY   = 263.6239

EPHEMERIS_TYPE = 0
CLASSIFICATION_TYPE = U
NORAD_CAT_ID   = 66270
ELEMENT_SET_NO = 999
REV_AT_EPOCH   = 432
BSTAR          = -.32705225E-3
MEAN_MOTION_DOT = -.18603E-3
MEAN_MOTION_DDOT = 0

CCSDS_OMM_VERS = 2.0
CREATION_DATE  = 
ORIGINATOR     = 

OBJECT_NAME    = STARLINK-35745
OBJECT_ID      = 2025-247G
CENTER_NAME    = EARTH
REF_FRAME      = TEME
TIME_SYSTEM    = UTC
MEAN_ELEMENT_THEORY = SGP/SGP4

EPOCH          = 2025-11-20T06:00:02.000160
MEAN_MOTION    = 15.49329132
ECCENTRICITY   = .00012932
INCLINATION    = 53.1597
RA_OF_ASC_NODE = 343.6711
ARG_OF_PERICENTER = 80.8498
MEAN_ANOMALY   = 261.9467

EPHEMERIS_TYPE = 0
CLASSIFICATION_TYPE = U
NORAD_CAT_ID   = 66271
ELEMENT_SET_NO = 999
REV_AT_EPOCH   = 432
BSTAR          = -.12741733E-2
MEAN_MOTION_DOT = -.70725E-3
MEAN_MOTION_DDOT = 0

CCSDS_OMM_VERS = 2.0
CREATION_DATE  = 
ORIGINATOR     = 

OBJECT_NAME    = STARLINK-35741
OBJECT_ID      = 2025-247H
CENTER_NAME    = EARTH
REF_FRAME      = TEME
TIME_SYSTEM    = UTC
MEAN_ELEMENT_THEORY = SGP/SGP4

EPOCH          = 2025-11-20T06:00:02.000160
MEAN_MOTION    = 15.49339434
ECCENTRICITY   = .00012957
INCLINATION    = 53.1597
RA_OF_ASC_NODE = 343.6663
ARG_OF_PERICENTER = 84.6440
MEAN_ANOMALY   = 260.0620

EPHEMERIS_TYPE = 0
CLASSIFICATION_TYPE = U
NORAD_CAT_ID   = 66272
ELEMENT_SET_NO = 999
REV_AT_EPOCH   = 432
BSTAR          = -.1532157E-2
MEAN_MOTION_DOT = -.84834E-3
MEAN_MOTION_DDOT = 0

CCSDS_OMM_VERS = 2.0
CREATION_DATE  = 
ORIGINATOR     = 

OBJECT_NAME    = STARLINK-35730
OBJECT_ID      = 2025-247J
CENTER_NAME    = EARTH
REF_FRAME      = TEME
TIME_SYSTEM    = UTC
MEAN_ELEMENT_THEORY = SGP/SGP4

EPOCH          = 2025-11-20T06:00:02.000160
MEAN_MOTION    = 15.49333095
ECCENTRICITY   = .00013118
INCLINATION    = 53.1597
RA_OF_ASC_NODE = 343.6627
ARG_OF_PERICENTER = 80.0948
MEAN_ANOMALY   = 266.5309

EPHEMERIS_TYPE = 0
CLASSIFICATION_TYPE = U
NORAD_CAT_ID   = 66273
ELEMENT_SET_NO = 999
REV_AT_EPOCH   = 432
BSTAR          = -.13536276E-2
MEAN_MOTION_DOT = -.75077E-3
MEAN_MOTION_DDOT = 0

CCSDS_OMM_VERS = 2.0
CREATION_DATE  = 
ORIGINATOR     = 

OBJECT_NAME    = STARLINK-35760
OBJECT_ID      = 2025-247K
CENTER_NAME    = EARTH
REF_FRAME      = TEME
TIME_SYSTEM    = UTC
MEAN_ELEMENT_THEORY = SGP/SGP4

EPOCH          = 2025-11-20T06:00:02.000160
MEAN_MOTION    = 15.49257984
ECCENTRICITY   = .0001509
INCLINATION    = 53.1596
RA_OF_ASC_NODE = 343.6581
ARG_OF_PERICENTER = 77.1648
MEAN_ANOMALY   = 271.4101

EPHEMERIS_TYPE = 0
CLASSIFICATION_TYPE = U
NORAD_CAT_ID   = 66274
ELEMENT_SET_NO = 999
REV_AT_EPOCH   = 400
BSTAR          = .79816906E-3
MEAN_MOTION_DOT = .44114E-3
MEAN_MOTION_DDOT = 0

CCSDS_OMM_VERS = 2.0
CREATION_DATE  = 
ORIGINATOR     = 

OBJECT_NAME    = STARLINK-35752
OBJECT_ID      = 2025-247L
CENTER_NAME    = EARTH
REF_FRAME      = TEME
TIME_SYSTEM    = UTC
MEAN_ELEMENT_THEORY = SGP/SGP4

EPOCH          = 2025-11-20T06:00:02.000160
MEAN_MOTION    = 15.49329198
ECCENTRICITY   = .00012359
INCLINATION    = 53.1597
RA_OF_ASC_NODE = 343.6547
ARG_OF_PERICENTER = 79.4984
MEAN_ANOMALY   = 270.9655

EPHEMERIS_TYPE = 0
CLASSIFICATION_TYPE = U
NORAD_CAT_ID   = 66275
ELEMENT_SET_NO = 999
REV_AT_EPOCH   = 400
BSTAR          = -.12670337E-2
MEAN_MOTION_DOT = -.70335E-3
MEAN_MOTION_DDOT = 0

CCSDS_OMM_VERS = 2.0
CREATION_DATE  = 
ORIGINATOR     = 

OBJECT_NAME    = STARLINK-35742
OBJECT_ID      = 2025-247M
CENTER_NAME    = EARTH
REF_FRAME      = TEME
TIME_SYSTEM    = UTC
MEAN_ELEMENT_THEORY = SGP/SGP4

EPOCH          = 2025-11-20T06:00:02.000160
MEAN_MOTION    = 15.49261797
ECCENTRICITY   = .00014643
INCLINATION    = 53.1597
RA_OF_ASC_NODE = 343.6504
ARG_OF_PERICENTER = 75.9161
MEAN_ANOMALY   = 276.4889

EPHEMERIS_TYPE = 0
CLASSIFICATION_TYPE = U
NORAD_CAT_ID   = 66276
ELEMENT_SET_NO = 999
REV_AT_EPOCH   = 432
BSTAR          = .72362546E-3
MEAN_MOTION_DOT = .39936E-3
MEAN_MOTION_DDOT = 0

CCSDS_OMM_VERS = 2.0
CREATION_DATE  = 
ORIGINATOR     = 

OBJECT_NAME    = STARLINK-35708
OBJECT_ID      = 2025-247N
CENTER_NAME    = EARTH
REF_FRAME      = TEME
TIME_SYSTEM    = UTC
MEAN_ELEMENT_THEORY = SGP/SGP4

EPOCH          = 2025-11-20T06:00:02.000160
MEAN_MOTION    = 15.49336524
ECCENTRICITY   = .00013203
INCLINATION    = 53.1596
RA_OF_ASC_NODE = 343.6464
ARG_OF_PERICENTER = 81.4671
MEAN_ANOMALY   = 272.8245

EPHEMERIS_TYPE = 0
CLASSIFICATION_TYPE = U
NORAD_CAT_ID   = 66277
ELEMENT_SET_NO = 999
REV_AT_EPOCH   = 432
BSTAR          = -.14456606E-2
MEAN_MOTION_DOT = -.8011E-3
MEAN_MOTION_DDOT = 0

CCSDS_OMM_VERS = 2.0
CREATION_DATE  = 
ORIGINATOR     = 

OBJECT_NAME    = STARLINK-35713
OBJECT_ID      = 2025-247P
CENTER_NAME    = EARTH
REF_FRAME      = TEME
TIME_SYSTEM    = UTC
MEAN_ELEMENT_THEORY = SGP/SGP4

EPOCH          = 2025-11-20T06:00:02.000160
MEAN_MOTION    = 15.49348628
ECCENTRICITY   = .00012477
INCLINATION    = 53.1597
RA_OF_ASC_NODE = 343.6383
ARG_OF_PERICENTER = 80.8567
MEAN_ANOMALY   = 277.2572

EPHEMERIS_TYPE = 0
CLASSIFICATION_TYPE = U
NORAD_CAT_ID   = 66278
ELEMENT_SET_NO = 999
REV_AT_EPOCH   = 432
BSTAR          = -.16768981E-2
MEAN_MOTION_DOT = -.92742E-3
MEAN_MOTION_DDOT = 0

CCSDS_OMM_VERS = 2.0
CREATION_DATE  = 
ORIGINATOR     = 

OBJECT_NAME    = STARLINK-35724
OBJECT_ID      = 2025-247Q
CENTER_NAME    = EARTH
REF_FRAME      = TEME
TIME_SYSTEM    = UTC
MEAN_ELEMENT_THEORY = SGP/SGP4

EPOCH          = 2025-11-20T06:00:02.000160
MEAN_MOTION    = 15.49263492
ECCENTRICITY   = .00014681
INCLINATION    = 53.1597
RA_OF_ASC_NODE = 343.6338
ARG_OF_PERICENTER = 76.0979
MEAN_ANOMALY   = 283.9720

EPHEMERIS_TYPE = 0
CLASSIFICATION_TYPE = U
NORAD_CAT_ID   = 66279
ELEMENT_SET_NO = 999
REV_AT_EPOCH   = 395
BSTAR          = .70163185E-3
MEAN_MOTION_DOT = .38705E-3
MEAN_MOTION_DDOT = 0

CCSDS_OMM_VERS = 2.0
CREATION_DATE  = 
ORIGINATOR     = 

OBJECT_NAME    = STARLINK-35726
OBJECT_ID      = 2025-247R
CENTER_NAME    = EARTH
REF_FRAME      = TEME
TIME_SYSTEM    = UTC
MEAN_ELEMENT_THEORY = SGP/SGP4

EPOCH          = 2025-11-20T06:00:02.000160
MEAN_MOTION    = 15.49341128
ECCENTRICITY   = .00013568
INCLINATION    = 53.1597
RA_OF_ASC_NODE = 343.6424
ARG_OF_PERICENTER = 88.9218
MEAN_ANOMALY   = 267.2839

EPHEMERIS_TYPE = 0
CLASSIFICATION_TYPE = U
NORAD_CAT_ID   = 66280
ELEMENT_SET_NO = 999
REV_AT_EPOCH   = 400
BSTAR          = -.15626923E-2
MEAN_MOTION_DOT = -.86503E-3
MEAN_MOTION_DDOT = 0

CCSDS_OMM_VERS = 2.0
CREATION_DATE  = 
ORIGINATOR     = 

OBJECT_NAME    = STARLINK-35727
OBJECT_ID      = 2025-247S
CENTER_NAME    = EARTH
REF_FRAME      = TEME
TIME_SYSTEM    = UTC
MEAN_ELEMENT_THEORY = SGP/SGP4

EPOCH          = 2025-11-20T06:00:02.000160
MEAN_MOTION    = 15.49260397
ECCENTRICITY   = .00012489
INCLINATION    = 53.1597
RA_OF_ASC_NODE = 343.6300
ARG_OF_PERICENTER = 79.6348
MEAN_ANOMALY   = 282.3592

EPHEMERIS_TYPE = 0
CLASSIFICATION_TYPE = U
NORAD_CAT_ID   = 66281
ELEMENT_SET_NO = 999
REV_AT_EPOCH   = 400
BSTAR          = .72480983E-3
MEAN_MOTION_DOT = .4E-3
MEAN_MOTION_DDOT = 0

CCSDS_OMM_VERS = 2.0
CREATION_DATE  = 
ORIGINATOR     = 

OBJECT_NAME    = STARLINK-35776
OBJECT_ID      = 2025-247T
CENTER_NAME    = EARTH
REF_FRAME      = TEME
TIME_SYSTEM    = UTC
MEAN_ELEMENT_THEORY = SGP/SGP4

EPOCH          = 2025-11-20T06:00:02.000160
MEAN_MOTION    = 15.49266926
ECCENTRICITY   = .00013612
INCLINATION    = 53.1596
RA_OF_ASC_NODE = 343.6261
ARG_OF_PERICENTER = 74.9941
MEAN_ANOMALY   = 288.9057

EPHEMERIS_TYPE = 0
CLASSIFICATION_TYPE = U
NORAD_CAT_ID   = 66282
ELEMENT_SET_NO = 999
REV_AT_EPOCH   = 400
BSTAR          = .64242412E-3
MEAN_MOTION_DOT = .3539E-3
MEAN_MOTION_DDOT = 0

